NORAD_CAT_ID,OBJECT_NAME,OBJECT_TYPE,EPOCH,MEAN_MOTION,ECCENTRICITY,INCLINATION,RA_OF_ASC_NODE,ARG_OF_PERICENTER,MEAN_ANOMALY,BSTAR,MEAN_MOTION_DOT,MEAN_MOTION_DDOT,TLE_LINE0,TLE_LINE1,TLE_LINE2,SEMIMAJOR_AXIS,PERIOD,APOGEE,PERIGEE,DECAYED
51789.0,STARLINK-3639,PAYLOAD,2022-04-26 22:00:00,15.25083762,0.0001872,53.2172,211.9154,39.4553,143.0457,-0.030673,-0.00724993,0.0,0 STARLINK-3639,1 51789U 22017X   22116.91667824 -.00724993  00000-0 -30673-1 0  9993,2 51789  53.2172 211.9154 0001872  39.4553 143.0457 15.25083762 10635,6868.670999999999,94.421,491.822,489.25,0.0
51789.0,STARLINK-3639,PAYLOAD,2022-04-27 14:00:01,15.24062901,0.0001841,53.2174,208.8492,43.3038,200.2526,-0.031554,-0.0072338,0.0,0 STARLINK-3639,1 51789U 22017X   22117.58335648 -.00723380  00000-0 -31554-1 0  9991,2 51789  53.2174 208.8492 0001841  43.3038 200.2526 15.24062901  3653,6871.738,94.484,494.86800000000005,492.338,0.0
51789.0,STARLINK-3639,PAYLOAD,2022-04-28 06:00:00,15.22927434,0.0001504,53.2167,205.7859,41.0789,261.0172,-0.025146,-0.00560722,0.0,0 STARLINK-3639,1 51789U 22017X   22118.25001157 -.00560722  00000-0 -25146-1 0  9990,2 51789  53.2167 205.7859 0001504  41.0789 261.0172 15.22927434 10842,6875.153,94.555,498.052,495.984,0.0
51789.0,STARLINK-3639,PAYLOAD,2022-04-28 14:00:01,15.22534211,0.0001808,53.2175,204.2576,37.5683,292.8164,-0.033125,-0.00725381,0.0,0 STARLINK-3639,1 51789U 22017X   22118.58334491 -.00725381  00000-0 -33125-1 0  9996,2 51789  53.2175 204.2576 0001808  37.5683 292.8164 15.22534211 10896,6876.337,94.579,499.445,496.958,0.0
51789.0,STARLINK-3639,PAYLOAD,2022-04-29 14:00:01,15.21004646,0.0001748,53.2175,199.6767,38.8839,12.8778,-0.034705,-0.00726292,0.0,0 STARLINK-3639,1 51789U 22017X   22119.58334491 -.00726292  00000-0 -34705-1 0  9994,2 51789  53.2175 199.6767 0001748  38.8839  12.8778 15.21004646  3666,6880.946,94.674,504.014,501.608,0.0
51789.0,STARLINK-3639,PAYLOAD,2022-04-29 22:00:00,15.20493885,0.0001607,53.2175,198.1509,43.7523,33.9106,-0.035151,-0.00724754,0.0,0 STARLINK-3639,1 51789U 22017X   22119.91667824 -.00724754  00000-0 -35151-1 0  9997,2 51789  53.2175 198.1509 0001607  43.7523  33.9106 15.20493885 11094,6882.486999999999,94.706,505.458,503.246,0.0
51789.0,STARLINK-3639,PAYLOAD,2022-04-30 14:00:01,15.19473194,0.0001981,53.2175,195.1066,36.2569,91.3675,-0.036157,-0.00723674,0.0,0 STARLINK-3639,1 51789U 22017X   22120.58334491 -.00723674  00000-0 -36157-1 0  9990,2 51789  53.2175 195.1066 0001981  36.2569  91.3675 15.19473194  3630,6885.569,94.77,508.798,506.07,0.0
51789.0,STARLINK-3639,PAYLOAD,2022-04-30 22:00:00,15.18963699,0.0001745,53.2174,193.5841,44.6896,106.9971,-0.036711,-0.00723888,0.0,0 STARLINK-3639,1 51789U 22017X   22120.91667824 -.00723888  00000-0 -36711-1 0  9999,2 51789  53.2174 193.5841 0001745  44.6896 106.9971 15.18963699  3664,6887.108,94.801,510.175,507.771,0.0
51789.0,STARLINK-3639,PAYLOAD,2022-05-01 06:00:00,15.18452869,0.0001981,53.2177,192.064,37.759,137.3771,-0.037167,-0.00722229,0.0,0 STARLINK-3639,1 51789U 22017X   22121.25001157 -.00722229  00000-0 -37167-1 0  9992,2 51789  53.2177 192.0640 0001981  37.7590 137.3771 15.18452869 11302,6888.653,94.833,511.882,509.153,0.0
51789.0,STARLINK-3639,PAYLOAD,2022-05-01 14:00:01,15.17941643,0.0001971,53.2175,190.5471,39.7734,158.1985,-0.037626,-0.00720519,0.0,0 STARLINK-3639,1 51789U 22017X   22121.58334491 -.00720519  00000-0 -37626-1 0  9998,2 51789  53.2175 190.5471 0001971  39.7734 158.1985 15.17941643  3633,6890.199000000001,94.865,513.422,510.706,0.0
51789.0,STARLINK-3639,PAYLOAD,2022-05-01 22:00:01,15.17434103,0.0001712,53.2175,189.028,48.2718,171.9867,-0.038396,-0.00724259,0.0,0 STARLINK-3639,1 51789U 22017X   22121.91668981 -.00724259  00000-0 -38396-1 0  9999,2 51789  53.2175 189.0280 0001712  48.2718 171.9867 15.17434103  3656,6891.736,94.897,514.781,512.4209999999998,0.0
51789.0,STARLINK-3639,PAYLOAD,2022-05-02 06:00:00,15.16824132,0.0001945,53.2167,187.5128,43.1127,198.7434,-0.031121,-0.00579296,0.0,0 STARLINK-3639,1 51789U 22017X   22122.25001157 -.00579296  00000-0 -31121-1 0  9991,2 51789  53.2167 187.5128 0001945  43.1127 198.7434 15.16824132 11455,6893.583000000001,94.935,516.789,514.107,0.0
51789.0,STARLINK-3639,PAYLOAD,2022-05-02 14:00:01,15.16411349,0.0001873,53.2175,185.9983,41.1699,221.6339,-0.039263,-0.00719501,0.0,0 STARLINK-3639,1 51789U 22017X   22122.58334491 -.00719501  00000-0 -39263-1 0  9997,2 51789  53.2175 185.9983 0001873  41.1699 221.6339 15.16411349 11505,6894.834,94.961,517.991,515.408,0.0
51789.0,STARLINK-3639,PAYLOAD,2022-05-02 22:00:01,15.15904146,0.0001582,53.2176,184.4827,50.6838,232.5683,-0.040124,-0.00724292,0.0,0 STARLINK-3639,1 51789U 22017X   22122.91668981 -.00724292  00000-0 -40124-1 0  9999,2 51789  53.2176 184.4827 0001582  50.6838 232.5683 15.15904146  3644,6896.371999999999,94.993,519.328,517.146,0.0
51789.0,STARLINK-3639,PAYLOAD,2022-05-03 14:00:01,15.14881667,0.0001602,53.2175,181.4601,48.6161,273.5044,-0.041035,-0.00719774,0.0,0 STARLINK-3639,1 51789U 22017X   22123.58334491 -.00719774  00000-0 -41035-1 0  9990,2 51789  53.2175 181.4601 0001602  48.6161 273.5044 15.14881667 11656,6899.475,95.057,522.445,520.235,0.0
51789.0,STARLINK-3639,PAYLOAD,2022-05-03 22:00:00,15.14373506,0.0001617,53.2175,179.9481,43.3002,297.3675,-0.041848,-0.00723265,0.0,0 STARLINK-3639,1 51789U 22017X   22123.91667824 -.00723265  00000-0 -41848-1 0  9998,2 51789  53.2175 179.9481 0001617  43.3002 297.3675 15.14373506  3648,6901.018,95.089,523.999,521.7669999999998,0.0
51789.0,STARLINK-3639,PAYLOAD,2022-05-04 14:00:01,15.13351506,0.0001561,53.2175,176.9327,47.0168,328.9054,-0.042838,-0.00719544,0.0,0 STARLINK-3639,1 51789U 22017X   22124.58334491 -.00719544  00000-0 -42838-1 0  9998,2 51789  53.2175 176.9327 0001561  47.0168 328.9054 15.13351506 11800,6904.125,95.153,527.068,524.9119999999998,0.0
51789.0,STARLINK-3639,PAYLOAD,2022-05-04 22:00:01,15.12842677,0.0001638,53.2175,175.4242,40.8889,351.8055,-0.043611,-0.00721941,0.0,0 STARLINK-3639,1 51789U 22017X   22124.91668981 -.00721941  00000-0 -43611-1 0  9993,2 51789  53.2175 175.4242 0001638  40.8889 351.8055 15.12842677  3648,6905.6730000000025,95.185,528.669,526.4069999999998,0.0
51789.0,STARLINK-3639,PAYLOAD,2022-05-05 14:00:01,15.1182073,0.0001854,53.2174,172.416,35.9898,28.2194,-0.044632,-0.00718258,0.0,0 STARLINK-3639,1 51789U 22017X   22125.58334491 -.00718258  00000-0 -44632-1 0  9994,2 51789  53.2174 172.4160 0001854  35.9898  28.2194 15.11820730  3653,6908.784000000002,95.249,531.93,529.369,0.0
51789.0,STARLINK-3639,PAYLOAD,2022-05-05 16:00:00,15.11694867,0.0001963,53.2172,172.0396,38.2624,119.7213,-0.044935,-0.00720447,0.0,0 STARLINK-3639,1 51789U 22017X   22125.66667824 -.00720447  00000-0 -44935-1 0  9991,2 51789  53.2172 172.0396 0001963  38.2624 119.7213 15.11694867 11963,6909.168000000002,95.257,532.389,529.677,0.0
51789.0,STARLINK-3639,PAYLOAD,2022-05-05 22:00:00,15.11312082,0.0001606,53.2175,170.91099999999997,44.7787,34.3012,-0.045438,-0.00720707,0.0,0 STARLINK-3639,1 51789U 22017X   22125.91667824 -.00720707  00000-0 -45438-1 0  9997,2 51789  53.2175 170.9110 0001606  44.7787  34.3012 15.11312082  3644,6910.335,95.281,533.309,531.09,0.0
51789.0,STARLINK-3639,PAYLOAD,2022-05-06 14:00:01,15.10290227,0.0001792,53.2173,167.9099,40.6148,66.3661,-0.046501,-0.00717176,0.0,0 STARLINK-3639,1 51789U 22017X   22126.58334491 -.00717176  00000-0 -46501-1 0  9990,2 51789  53.2173 167.9099 0001792  40.6148  66.3661 15.10290227  3657,6913.451,95.346,536.555,534.077,0.0
51789.0,STARLINK-3639,PAYLOAD,2022-05-06 22:00:00,15.09782144,0.0001735,53.2174,166.4084,43.6943,76.3186,-0.047403,-0.00720613,0.0,0 STARLINK-3639,1 51789U 22017X   22126.91667824 -.00720613  00000-0 -47403-1 0  9998,2 51789  53.2174 166.4084 0001735  43.6943  76.3186 15.09782144 12159,6915.002,95.378,538.067,535.6669999999998,0.0
51789.0,STARLINK-3639,PAYLOAD,2022-05-07 14:00:01,15.08834546,0.0001682,53.2172,163.4149,47.8049,96.4408,0.00029977,4.485e-05,0.0,0 STARLINK-3639,1 51789U 22017X   22127.58334491  .00004485  00000-0  29977-3 0  9991,2 51789  53.2172 163.4149 0001682  47.8049  96.4408 15.08834546 12254,6917.897,95.438,540.9259999999998,538.5980000000002,0.0
51789.0,STARLINK-3639,PAYLOAD,2022-05-07 22:00:00,15.0881509,0.0001889,53.2138,161.9219,46.1333,109.8497,0.0020722,0.00032823,0.0,0 STARLINK-3639,1 51789U 22017X   22127.91667824  .00032823  00000-0  20722-2 0  9992,2 51789  53.2138 161.9219 0001889  46.1333 109.8497 15.08815090 12311,6917.956999999999,95.439,541.128,538.515,0.0
51789.0,STARLINK-3639,PAYLOAD,2022-05-08 06:00:00,15.088268,0.0002049,53.214,160.4261,50.48,117.049,-0.0015062,-0.00024171,0.0,0 STARLINK-3639,1 51789U 22017X   22128.25001157 -.00024171  00000-0 -15062-2 0  9991,2 51789  53.2140 160.4261 0002049  50.4800 117.0490 15.08826800 12361,6917.920999999999,95.438,541.203,538.368,0.0
51789.0,STARLINK-3639,PAYLOAD,2022-05-08 14:00:01,15.08800716,0.0002186,53.2125,158.9332,45.8144,133.2798,0.0019325,0.00030569,0.0,0 STARLINK-3639,1 51789U 22017X   22128.58334491  .00030569  00000-0  19325-2 0  9999,2 51789  53.2125 158.9332 0002186  45.8144 133.2798 15.08800716  3635,6918.0,95.44,541.378,538.3530000000002,0.0
51789.0,STARLINK-3639,PAYLOAD,2022-05-08 20:00:01,15.08818641,0.000204,53.2129,157.8094,49.5997,48.1724,7.1814e-05,8.54e-06,0.0,0 STARLINK-3639,1 51789U 22017X   22128.83334491  .00000854  00000-0  71814-4 0  9994,2 51789  53.2129 157.8094 0002040  49.5997  48.1724 15.08818641 12446,6917.946,95.439,541.222,538.399,0.0
51789.0,STARLINK-3639,PAYLOAD,2022-05-08 22:00:00,15.0880052,0.0002007,53.2128,157.435,50.0612,140.6094,0.0026764,0.00042519,0.0,0 STARLINK-3639,1 51789U 22017X   22128.91667824  .00042519  00000-0  26764-2 0  9998,2 51789  53.2128 157.4350 0002007  50.0612 140.6094 15.08800520  3636,6918.001,95.44,541.255,538.4780000000002,0.0
